STARLINK-5827           
1 57066U 23088U   26068.09513795 -.00000208  00000+0 -30595-6 0  9995
2 57066  43.0033 110.4145 0001491 275.9436  84.1236 15.02533243149305
SEDNA-1                 
1 60580U 24149DS  26068.76583836  .00008721  00000+0  60834-3 0  9998
2 60580  97.6673 149.7617 0008344 330.8481  29.2278 15.05597965 85421
